ORBCOMM FM33            
1 25983U 99065D   25281.79351361  .00001435  00000+0  49355-3 0  9990
2 25983  45.0279 178.7414 0008661 283.0480  76.9403 14.40273811352442
ORBCOMM FM36            
1 25984U 99065E   25281.41947069  .00001724  00000+0  60602-3 0  9995
2 25984  45.0390 274.1798 0002115 206.5638 153.5103 14.38433503350727
ORBCOMM FM35            
1 25985U 99065F   25281.41184117  .00001337  00000+0  49079-3 0  9998
2 25985  45.0394 280.1590 0005770 258.4743 101.5457 14.37365557351078
ORBCOMM FM34            
1 25986U 99065G   25281.37705772  .00001252  00000+0  46250-3 0  9994
2 25986  45.0389 280.7787 0004569 223.6347 136.4141 14.37357016351186
ORBCOMM FM38            
1 33060U 08031A   25281.78746124  .00002475  00000+0  33680-3 0  9991
2 33060  48.4380 133.6986 0005015 174.7941 185.3027 14.81825645931598
ORBCOMM FM41            
1 33061U 08031B   25281.83480132  .00002372  00000+0  32719-3 0  9990
2 33061  48.4418 141.6494 0004079 159.8506 262.5244 14.81394424931083
ORBCOMM FM29            
1 33062U 08031C   25281.80857242  .00002623  00000+0  35788-3 0  9996
2 33062  48.4371 149.4390 0005774 157.1321 254.3470 14.81518939930990
ORBCOMM FM39            
1 33063U 08031D   25281.80774554  .00002358  00000+0  33597-3 0  9992
2 33063  48.4388 174.9819 0006428 126.1360 234.0151 14.80014821930625
